[{"OBJECT_NAME":"239ALFEROV (RS61S)","OBJECT_ID":"2025-155F","EPOCH":"2026-03-09T21:46:33.382848","MEAN_MOTION":15.29933217,"ECCENTRICITY":0.00084878,"INCLINATION":97.4469,"RA_OF_ASC_NODE":37.6373,"ARG_OF_PERICENTER":151.5904,"MEAN_ANOMALY":208.58,"EPHEMERIS_TYPE":0,"CLASSIFICATION_TYPE":"U","NORAD_CAT_ID":64881,"ELEMENT_SET_NO":999,"REV_AT_EPOCH":6561,"BSTAR":0.00067233359,"MEAN_MOTION_DOT":0.00019457,"MEAN_MOTION_DDOT":0},{"OBJECT_NAME":"STARLINK-35653","OBJECT_ID":"2025-237J","EPOCH":"2026-03-09T21:53:09.425760","MEAN_MOTION":15.30204154,"ECCENTRICITY":0.00012084,"INCLINATION":53.1613,"RA_OF_ASC_NODE":38.6603,"ARG_OF_PERICENTER":77.8994,"MEAN_ANOMALY":282.2143,"EPHEMERIS_TYPE":0,"CLASSIFICATION_TYPE":"U","NORAD_CAT_ID":66122,"ELEMENT_SET_NO":999,"REV_AT_EPOCH":2264,"BSTAR":0.0013920206,"MEAN_MOTION_DOT":0.00041102,"MEAN_MOTION_DDOT":0}]
